[{"OBJECT_NAME":"STARLINK-5686","OBJECT_ID":"2023-015B","EPOCH":"2026-03-09T22:08:18.010752","MEAN_MOTION":15.03531284,"ECCENTRICITY":0.00011421,"INCLINATION":43.0018,"RA_OF_ASC_NODE":325.1936,"ARG_OF_PERICENTER":277.4913,"MEAN_ANOMALY":82.58,"EPHEMERIS_TYPE":0,"CLASSIFICATION_TYPE":"U","NORAD_CAT_ID":55450,"ELEMENT_SET_NO":999,"REV_AT_EPOCH":17172,"BSTAR":0.0081001838,"MEAN_MOTION_DOT":0.00113991,"MEAN_MOTION_DDOT":0},{"OBJECT_NAME":"COSMOS 886 DEB","OBJECT_ID":"1976-126K","EPOCH":"2026-03-09T08:30:22.920480","MEAN_MOTION":13.29941392,"ECCENTRICITY":0.07924496,"INCLINATION":65.7667,"RA_OF_ASC_NODE":54.9403,"ARG_OF_PERICENTER":220.5455,"MEAN_ANOMALY":133.3914,"EPHEMERIS_TYPE":0,"CLASSIFICATION_TYPE":"U","NORAD_CAT_ID":9653,"ELEMENT_SET_NO":999,"REV_AT_EPOCH":33076,"BSTAR":0.00057511282,"MEAN_MOTION_DOT":1.542e-5,"MEAN_MOTION_DDOT":0}]
